[{"OBJECT_NAME":"STARLINK-6063","OBJECT_ID":"2023-078AW","EPOCH":"2026-03-09T22:35:23.207712","MEAN_MOTION":15.58730037,"ECCENTRICITY":0.00035775,"INCLINATION":70.0007,"RA_OF_ASC_NODE":295.002,"ARG_OF_PERICENTER":255.2165,"MEAN_ANOMALY":104.8629,"EPHEMERIS_TYPE":0,"CLASSIFICATION_TYPE":"U","NORAD_CAT_ID":56811,"ELEMENT_SET_NO":999,"REV_AT_EPOCH":15392,"BSTAR":0.00025546943,"MEAN_MOTION_DOT":0.00019616,"MEAN_MOTION_DDOT":0},{"OBJECT_NAME":"STARLINK-36706","OBJECT_ID":"2026-022K","EPOCH":"2026-03-09T22:00:01.999584","MEAN_MOTION":15.67261304,"ECCENTRICITY":0.00015605,"INCLINATION":97.285,"RA_OF_ASC_NODE":102.9026,"ARG_OF_PERICENTER":67.2602,"MEAN_ANOMALY":325.5954,"EPHEMERIS_TYPE":0,"CLASSIFICATION_TYPE":"U","NORAD_CAT_ID":67657,"ELEMENT_SET_NO":999,"REV_AT_EPOCH":608,"BSTAR":-0.020198201,"MEAN_MOTION_DOT":-0.019182,"MEAN_MOTION_DDOT":0}]
